{"type": "FeatureCollection", "features": [{"type": "Feature", "properties": {"building_uid": "0000296707961880875900000000", "pnu": "4817012700101080019", "legal_name": "경상남도 진주시 이현동", "jibun": "108-19", "use_name": "단독주택", "height_m": 0.0, "bcr": 0.0, "far": 0.0, "building_id": null, "building_name": null, "building_dong": null, "floors_above": 1.0, "floors_below": 0.0, "district_id": "38030690", "district_name": "이현동"}, "geometry": {"type": "Polygon", "coordinates": [[[128.06262043341462, 35.18736989766575], [128.06258957466508, 35.18729615665046], [128.06253287442945, 35.187313815401055], [128.06256916428924, 35.187386895511096], [128.06262043341462, 35.18736989766575]]]}}, {"type": "Feature", "properties": {"building_uid": "1993310624991952135000000000", "pnu": "4817039025108390001", "legal_name": "경상남도 진주시 지수면 용봉리", "jibun": "839-1", "use_name": "단독주택", "height_m": 0.0, "bcr": 0.0, "far": 0.0, "building_id": null, "building_name": null, "building_dong": null, "floors_above": 1.0, "floors_below": 0.0, "district_id": "38030380", "district_name": "지수면"}, "geometry": {"type": "Polygon", "coordinates": [[[128.21638013959648, 35.2501632812835], [128.21638850366995, 35.25009348379705], [128.21622303914035, 35.25008141432098], [128.21621330834597, 35.25014480360658], [128.21638013959648, 35.2501632812835]]]}}, {"type": "Feature", "properties": {"building_uid": "1990298651801874370200000000", "pnu": "4817010100104390019", "legal_name": "경상남도 진주시 망경동", "jibun": "439-19", "use_name": "단독주택", "height_m": 10.0, "bcr": 57.39, "far": 146.53, "building_id": null, "building_name": null, "building_dong": null, "floors_above": 3.0, "floors_below": 0.0, "district_id": "38030720", "district_name": "천전동"}, "geometry": {"type": "Polygon", "coordinates": [[[128.0839073713921, 35.18126203159894], [128.08380473441494, 35.18122617497165], [128.0837745788781, 35.18127979090903], [128.083846487939, 35.18137428850365], [128.0839073713921, 35.18126203159894]]]}}, {"type": "Feature", "properties": {"building_uid": "2014129469861903130700000000", "pnu": "4817038021114550001", "legal_name": "경상남도 진주시 사봉면 마성리", "jibun": "1455-1", "use_name": "단독주택", "height_m": 4.8, "bcr": 14.45, "far": 14.45, "building_id": null, "building_name": null, "building_dong": null, "floors_above": 1.0, "floors_below": 0.0, "district_id": "38030370", "district_name": "사봉면"}, "geometry": {"type": "Polygon", "coordinates": [[[128.2260636022909, 35.20962477266327], [128.22611184497433, 35.209587938209786], [128.22604825433177, 35.20953184748368], [128.22600021060293, 35.20956854798837], [128.2260636022909, 35.20962477266327]]]}}]}